[
    {
        "CCSDS_OMM_VERS": "3.0",
        "COMMENT": "GENERATED VIA SPACE-TRACK.ORG API",
        "CREATION_DATE": "2025-05-03T17:28:03",
        "ORIGINATOR": "18 SPCS",
        "OBJECT_NAME": "GALILEO 7 (263)",
        "OBJECT_ID": "2015-017A",
        "CENTER_NAME": "EARTH",
        "REF_FRAME": "TEME",
        "TIME_SYSTEM": "UTC",
        "MEAN_ELEMENT_THEORY": "SGP4",
        "EPOCH": "2025-05-03T04:34:49.211904",
        "MEAN_MOTION": "1.70475819",
        "ECCENTRICITY": "0.00029110",
        "INCLINATION": "56.8950",
        "RA_OF_ASC_NODE": "352.7644",
        "ARG_OF_PERICENTER": "298.5650",
        "MEAN_ANOMALY": "61.4443",
        "EPHEMERIS_TYPE": "0",
        "CLASSIFICATION_TYPE": "U",
        "NORAD_CAT_ID": "40544",
        "ELEMENT_SET_NO": "999",
        "REV_AT_EPOCH": "6221",
        "BSTAR": "0.00000000000000",
        "MEAN_MOTION_DOT": "-0.00000101",
        "MEAN_MOTION_DDOT": "0.0000000000000",
        "SEMIMAJOR_AXIS": "29600.109",
        "PERIOD": "844.695",
        "APOAPSIS": "23230.591",
        "PERIAPSIS": "23213.358",
        "OBJECT_TYPE": "PAYLOAD",
        "RCS_SIZE": "LARGE",
        "COUNTRY_CODE": "ESA",
        "LAUNCH_DATE": "2015-03-27",
        "SITE": "FRGUI",
        "DECAY_DATE": null,
        "FILE": "4717971",
        "GP_ID": "286760618",
        "TLE_LINE0": "0 GALILEO 7 (263)",
        "TLE_LINE1": "1 40544U 15017A   25123.19084736 -.00000101  00000-0  00000-0 0  9995",
        "TLE_LINE2": "2 40544  56.8950 352.7644 0002911 298.5650  61.4443  1.70475819 62216"
    }
]